<?xml version="1.0" encoding="UTF-8"?>
<ndm xmlns:xsi="http://www.w3.org/2001/XMLSchema-instance" xsi:noNamespaceSchemaLocation="https://sanaregistry.org/r/ndmxml_unqualified/ndmxml-2.0.0-master-2.0.xsd">
<omm id="CCSDS_OMM_VERS" version="2.0">
<header><CREATION_DATE/><ORIGINATOR/></header><body><segment><metadata><OBJECT_NAME>KUIPER-00016</OBJECT_NAME><OBJECT_ID>2025-088J</OBJECT_ID><CENTER_NAME>EARTH</CENTER_NAME><REF_FRAME>TEME</REF_FRAME><TIME_SYSTEM>UTC</TIME_SYSTEM><MEAN_ELEMENT_THEORY>SGP4</MEAN_ELEMENT_THEORY></metadata><data><meanElements><EPOCH>2025-09-28T18:33:47.975616</EPOCH><MEAN_MOTION>14.79909597</MEAN_MOTION><ECCENTRICITY>.00103988</ECCENTRICITY><INCLINATION>51.8972</INCLINATION><RA_OF_ASC_NODE>107.5800</RA_OF_ASC_NODE><ARG_OF_PERICENTER>245.8832</ARG_OF_PERICENTER><MEAN_ANOMALY>114.1043</MEAN_ANOMALY></meanElements><tleParameters><EPHEMERIS_TYPE>0</EPHEMERIS_TYPE><CLASSIFICATION_TYPE>U</CLASSIFICATION_TYPE><NORAD_CAT_ID>63732</NORAD_CAT_ID><ELEMENT_SET_NO>999</ELEMENT_SET_NO><REV_AT_EPOCH>2335</REV_AT_EPOCH><BSTAR>-.49094528E-3</BSTAR><MEAN_MOTION_DOT>-.3966E-4</MEAN_MOTION_DOT><MEAN_MOTION_DDOT>0</MEAN_MOTION_DDOT></tleParameters></data></segment></body></omm>
<omm id="CCSDS_OMM_VERS" version="2.0">
<header><CREATION_DATE/><ORIGINATOR/></header><body><segment><metadata><OBJECT_NAME>KUIPER-00018</OBJECT_NAME><OBJECT_ID>2025-088K</OBJECT_ID><CENTER_NAME>EARTH</CENTER_NAME><REF_FRAME>TEME</REF_FRAME><TIME_SYSTEM>UTC</TIME_SYSTEM><MEAN_ELEMENT_THEORY>SGP4</MEAN_ELEMENT_THEORY></metadata><data><meanElements><EPOCH>2025-09-30T11:33:23.935392</EPOCH><MEAN_MOTION>14.77844157</MEAN_MOTION><ECCENTRICITY>.0011521</ECCENTRICITY><INCLINATION>51.9007</INCLINATION><RA_OF_ASC_NODE>88.3584</RA_OF_ASC_NODE><ARG_OF_PERICENTER>282.9082</ARG_OF_PERICENTER><MEAN_ANOMALY>77.0592</MEAN_ANOMALY></meanElements><tleParameters><EPHEMERIS_TYPE>0</EPHEMERIS_TYPE><CLASSIFICATION_TYPE>U</CLASSIFICATION_TYPE><NORAD_CAT_ID>63733</NORAD_CAT_ID><ELEMENT_SET_NO>999</ELEMENT_SET_NO><REV_AT_EPOCH>2377</REV_AT_EPOCH><BSTAR>.84869E-3</BSTAR><MEAN_MOTION_DOT>.595E-4</MEAN_MOTION_DOT><MEAN_MOTION_DDOT>0</MEAN_MOTION_DDOT></tleParameters></data></segment></body></omm>
<omm id="CCSDS_OMM_VERS" version="2.0">
<header><CREATION_DATE/><ORIGINATOR/></header><body><segment><metadata><OBJECT_NAME>KUIPER-00019</OBJECT_NAME><OBJECT_ID>2025-088L</OBJECT_ID><CENTER_NAME>EARTH</CENTER_NAME><REF_FRAME>TEME</REF_FRAME><TIME_SYSTEM>UTC</TIME_SYSTEM><MEAN_ELEMENT_THEORY>SGP4</MEAN_ELEMENT_THEORY></metadata><data><meanElements><EPOCH>2025-09-30T11:18:23.052960</EPOCH><MEAN_MOTION>14.79680166</MEAN_MOTION><ECCENTRICITY>.0008764</ECCENTRICITY><INCLINATION>51.8986</INCLINATION><RA_OF_ASC_NODE>87.5421</RA_OF_ASC_NODE><ARG_OF_PERICENTER>294.7276</ARG_OF_PERICENTER><MEAN_ANOMALY>65.2774</MEAN_ANOMALY></meanElements><tleParameters><EPHEMERIS_TYPE>0</EPHEMERIS_TYPE><CLASSIFICATION_TYPE>U</CLASSIFICATION_TYPE><NORAD_CAT_ID>63734</NORAD_CAT_ID><ELEMENT_SET_NO>999</ELEMENT_SET_NO><REV_AT_EPOCH>2378</REV_AT_EPOCH><BSTAR>.70979E-3</BSTAR><MEAN_MOTION_DOT>.5163E-4</MEAN_MOTION_DOT><MEAN_MOTION_DDOT>0</MEAN_MOTION_DDOT></tleParameters></data></segment></body></omm>
<omm id="CCSDS_OMM_VERS" version="2.0">
<header><CREATION_DATE/><ORIGINATOR/></header><body><segment><metadata><OBJECT_NAME>KUIPER-00020</OBJECT_NAME><OBJECT_ID>2025-088M</OBJECT_ID><CENTER_NAME>EARTH</CENTER_NAME><REF_FRAME>TEME</REF_FRAME><TIME_SYSTEM>UTC</TIME_SYSTEM><MEAN_ELEMENT_THEORY>SGP4</MEAN_ELEMENT_THEORY></metadata><data><meanElements><EPOCH>2025-09-30T12:53:33.088128</EPOCH><MEAN_MOTION>14.79190418</MEAN_MOTION><ECCENTRICITY>.0007341</ECCENTRICITY><INCLINATION>51.8993</INCLINATION><RA_OF_ASC_NODE>91.2444</RA_OF_ASC_NODE><ARG_OF_PERICENTER>270.3987</ARG_OF_PERICENTER><MEAN_ANOMALY>89.6133</MEAN_ANOMALY></meanElements><tleParameters><EPHEMERIS_TYPE>0</EPHEMERIS_TYPE><CLASSIFICATION_TYPE>U</CLASSIFICATION_TYPE><NORAD_CAT_ID>63735</NORAD_CAT_ID><ELEMENT_SET_NO>999</ELEMENT_SET_NO><REV_AT_EPOCH>2394</REV_AT_EPOCH><BSTAR>.42281E-3</BSTAR><MEAN_MOTION_DOT>.2948E-4</MEAN_MOTION_DOT><MEAN_MOTION_DDOT>0</MEAN_MOTION_DDOT></tleParameters></data></segment></body></omm>
<omm id="CCSDS_OMM_VERS" version="2.0">
<header><CREATION_DATE/><ORIGINATOR/></header><body><segment><metadata><OBJECT_NAME>KUIPER-00021</OBJECT_NAME><OBJECT_ID>2025-088N</OBJECT_ID><CENTER_NAME>EARTH</CENTER_NAME><REF_FRAME>TEME</REF_FRAME><TIME_SYSTEM>UTC</TIME_SYSTEM><MEAN_ELEMENT_THEORY>SGP4</MEAN_ELEMENT_THEORY></metadata><data><meanElements><EPOCH>2025-09-30T11:16:26.520096</EPOCH><MEAN_MOTION>14.79955251</MEAN_MOTION><ECCENTRICITY>.0005556</ECCENTRICITY><INCLINATION>51.8997</INCLINATION><RA_OF_ASC_NODE>92.5636</RA_OF_ASC_NODE><ARG_OF_PERICENTER>269.5824</ARG_OF_PERICENTER><MEAN_ANOMALY>90.4501</MEAN_ANOMALY></meanElements><tleParameters><EPHEMERIS_TYPE>0</EPHEMERIS_TYPE><CLASSIFICATION_TYPE>U</CLASSIFICATION_TYPE><NORAD_CAT_ID>63736</NORAD_CAT_ID><ELEMENT_SET_NO>999</ELEMENT_SET_NO><REV_AT_EPOCH>2375</REV_AT_EPOCH><BSTAR>.86067E-3</BSTAR><MEAN_MOTION_DOT>.635E-4</MEAN_MOTION_DOT><MEAN_MOTION_DDOT>0</MEAN_MOTION_DDOT></tleParameters></data></segment></body></omm>
<omm id="CCSDS_OMM_VERS" version="2.0">
<header><CREATION_DATE/><ORIGINATOR/></header><body><segment><metadata><OBJECT_NAME>KUIPER-00023</OBJECT_NAME><OBJECT_ID>2025-088P</OBJECT_ID><CENTER_NAME>EARTH</CENTER_NAME><REF_FRAME>TEME</REF_FRAME><TIME_SYSTEM>UTC</TIME_SYSTEM><MEAN_ELEMENT_THEORY>SGP4</MEAN_ELEMENT_THEORY></metadata><data><meanElements><EPOCH>2025-09-30T12:52:16.738176</EPOCH><MEAN_MOTION>14.79958189</MEAN_MOTION><ECCENTRICITY>.001042</ECCENTRICITY><INCLINATION>51.9006</INCLINATION><RA_OF_ASC_NODE>93.7349</RA_OF_ASC_NODE><ARG_OF_PERICENTER>287.8139</ARG_OF_PERICENTER><MEAN_ANOMALY>72.1687</MEAN_ANOMALY></meanElements><tleParameters><EPHEMERIS_TYPE>0</EPHEMERIS_TYPE><CLASSIFICATION_TYPE>U</CLASSIFICATION_TYPE><NORAD_CAT_ID>63737</NORAD_CAT_ID><ELEMENT_SET_NO>999</ELEMENT_SET_NO><REV_AT_EPOCH>2404</REV_AT_EPOCH><BSTAR>-.14419E-3</BSTAR><MEAN_MOTION_DOT>-.1324E-4</MEAN_MOTION_DOT><MEAN_MOTION_DDOT>0</MEAN_MOTION_DDOT></tleParameters></data></segment></body></omm>
<omm id="CCSDS_OMM_VERS" version="2.0">
<header><CREATION_DATE/><ORIGINATOR/></header><body><segment><metadata><OBJECT_NAME>KUIPER-00024</OBJECT_NAME><OBJECT_ID>2025-088Q</OBJECT_ID><CENTER_NAME>EARTH</CENTER_NAME><REF_FRAME>TEME</REF_FRAME><TIME_SYSTEM>UTC</TIME_SYSTEM><MEAN_ELEMENT_THEORY>SGP4</MEAN_ELEMENT_THEORY></metadata><data><meanElements><EPOCH>2025-09-30T10:54:26.032608</EPOCH><MEAN_MOTION>14.79149745</MEAN_MOTION><ECCENTRICITY>.0003526</ECCENTRICITY><INCLINATION>51.9041</INCLINATION><RA_OF_ASC_NODE>81.3419</RA_OF_ASC_NODE><ARG_OF_PERICENTER>283.7713</ARG_OF_PERICENTER><MEAN_ANOMALY>76.2856</MEAN_ANOMALY></meanElements><tleParameters><EPHEMERIS_TYPE>0</EPHEMERIS_TYPE><CLASSIFICATION_TYPE>U</CLASSIFICATION_TYPE><NORAD_CAT_ID>63738</NORAD_CAT_ID><ELEMENT_SET_NO>999</ELEMENT_SET_NO><REV_AT_EPOCH>2433</REV_AT_EPOCH><BSTAR>.31193E-3</BSTAR><MEAN_MOTION_DOT>.2115E-4</MEAN_MOTION_DOT><MEAN_MOTION_DDOT>0</MEAN_MOTION_DDOT></tleParameters></data></segment></body></omm>
<omm id="CCSDS_OMM_VERS" version="2.0">
<header><CREATION_DATE/><ORIGINATOR/></header><body><segment><metadata><OBJECT_NAME>KUIPER-00025</OBJECT_NAME><OBJECT_ID>2025-088R</OBJECT_ID><CENTER_NAME>EARTH</CENTER_NAME><REF_FRAME>TEME</REF_FRAME><TIME_SYSTEM>UTC</TIME_SYSTEM><MEAN_ELEMENT_THEORY>SGP4</MEAN_ELEMENT_THEORY></metadata><data><meanElements><EPOCH>2025-09-30T04:51:20.219904</EPOCH><MEAN_MOTION>14.79954210</MEAN_MOTION><ECCENTRICITY>.0008517</ECCENTRICITY><INCLINATION>51.8995</INCLINATION><RA_OF_ASC_NODE>91.2740</RA_OF_ASC_NODE><ARG_OF_PERICENTER>271.3497</ARG_OF_PERICENTER><MEAN_ANOMALY>88.6490</MEAN_ANOMALY></meanElements><tleParameters><EPHEMERIS_TYPE>0</EPHEMERIS_TYPE><CLASSIFICATION_TYPE>U</CLASSIFICATION_TYPE><NORAD_CAT_ID>63739</NORAD_CAT_ID><ELEMENT_SET_NO>999</ELEMENT_SET_NO><REV_AT_EPOCH>2403</REV_AT_EPOCH><BSTAR>.71904E-3</BSTAR><MEAN_MOTION_DOT>.5269E-4</MEAN_MOTION_DOT><MEAN_MOTION_DDOT>0</MEAN_MOTION_DDOT></tleParameters></data></segment></body></omm>

</ndm>
