KUIPER-00016            
1 63732U 25088J   25271.77347194 -.00003966  00000+0 -49095-3 0  9998
2 63732  51.8972 107.5800 0010398 245.8832 114.1043 14.79909597 23356
KUIPER-00018            
1 63733U 25088K   25273.48152703  .00005950  00000+0  84869-3 0  9990
2 63733  51.9007  88.3584 0011521 282.9082  77.0592 14.77844157 23770
KUIPER-00019            
1 63734U 25088L   25273.47110015  .00005163  00000+0  70979-3 0  9993
2 63734  51.8986  87.5421 0008764 294.7276  65.2774 14.79680166 23780
KUIPER-00020            
1 63735U 25088M   25273.53718852  .00002948  00000+0  42281-3 0  9997
2 63735  51.8993  91.2444 0007341 270.3987  89.6133 14.79190418 23948
KUIPER-00021            
1 63736U 25088N   25273.46975139  .00006350  00000+0  86067-3 0  9994
2 63736  51.8997  92.5636 0005556 269.5824  90.4501 14.79955251 23758
KUIPER-00023            
1 63737U 25088P   25273.53630484 -.00001324  00000+0 -14419-3 0  9994
2 63737  51.9006  93.7349 0010420 287.8139  72.1687 14.79958189 24041
KUIPER-00024            
1 63738U 25088Q   25273.45446797  .00002115  00000+0  31193-3 0  9993
2 63738  51.9041  81.3419 0003526 283.7713  76.2856 14.79149745 24339
KUIPER-00025            
1 63739U 25088R   25273.20231736  .00005269  00000+0  71904-3 0  9999
2 63739  51.8995  91.2740 0008517 271.3497  88.6490 14.79954210 24030
